start=new Date('2022-08-02T00:00:00.000Z').valueOf();
sats=[{"FILE":"3527139","TLE_LINE1":"1 51145U 22005AT  22213.88968762  .00001037  00000-0  83228-4 0  9997","RCS_SIZE":"LARGE","BSTAR":"0.00008322800000","APOAPSIS":"541.784","SEMIMAJOR_AXIS":"6917.856","MEAN_MOTION_DDOT":"0.0000000000000","ELEMENT_SET_NO":"999","SITE":"AFETR","GP_ID":"209390937","EPOCH":"2022-08-01T21:21:09.010368","OBJECT_NAME":"STARLINK-3365","NORAD_CAT_ID":"51145","ECCENTRICITY":"0.00029830","PERIAPSIS":"537.657","REV_AT_EPOCH":"2995","TLE_LINE2":"2 51145  53.2170  95.9885 0002983  71.4778 288.6538 15.08848064 29955","ARG_OF_PERICENTER":"71.4778","OBJECT_ID":"2022-005AT","MEAN_ELEMENT_THEORY":"SGP4","CENTER_NAME":"EARTH","INCLINATION":"53.2170","MEAN_MOTION_DOT":"0.00001037","EPHEMERIS_TYPE":"0","RA_OF_ASC_NODE":"95.9885","OBJECT_TYPE":"PAYLOAD","TIME_SYSTEM":"UTC","PERIOD":"95.437","REF_FRAME":"TEME","LAUNCH_DATE":"2022-01-19","DECAY_DATE":null,"MEAN_MOTION":"15.08848064","COUNTRY_CODE":"US","MEAN_ANOMALY":"288.6538","CLASSIFICATION_TYPE":"U"},{"EPHEMERIS_TYPE":"0","TIME_SYSTEM":"UTC","PERIOD":"95.437","OBJECT_TYPE":"PAYLOAD","RA_OF_ASC_NODE":"85.8377","DECAY_DATE":null,"MEAN_MOTION":"15.08842861","LAUNCH_DATE":"2022-01-19","REF_FRAME":"TEME","CLASSIFICATION_TYPE":"U","MEAN_ANOMALY":"295.9871","COUNTRY_CODE":"US","ARG_OF_PERICENTER":"64.1324","TLE_LINE2":"2 51146  53.2188  85.8377 0001973  64.1324 295.9871 15.08842861 30090","CENTER_NAME":"EARTH","MEAN_ELEMENT_THEORY":"SGP4","OBJECT_ID":"2022-005AU","MEAN_MOTION_DOT":"0.00001755","INCLINATION":"53.2188","MEAN_MOTION_DDOT":"0.0000000000000","ELEMENT_SET_NO":"999","OBJECT_NAME":"STARLINK-3354","EPOCH":"2022-08-01T22:04:52.007232","SITE":"AFETR","GP_ID":"209391188","PERIAPSIS":"538.372","ECCENTRICITY":"0.00019730","NORAD_CAT_ID":"51146","REV_AT_EPOCH":"3009","BSTAR":"0.00012836000000","RCS_SIZE":"LARGE","FILE":"3527139","TLE_LINE1":"1 51146U 22005AU  22213.92004638  .00001755  00000-0  12836-3 0  9999","SEMIMAJOR_AXIS":"6917.872","APOAPSIS":"541.102"},{"REV_AT_EPOCH":"3105","ECCENTRICITY":"0.00017740","NORAD_CAT_ID":"51147","PERIAPSIS":"538.517","SITE":"AFETR","GP_ID":"209365763","EPOCH":"2022-08-01T18:20:58.878240","OBJECT_NAME":"STARLINK-3352","MEAN_MOTION_DDOT":"0.0000000000000","ELEMENT_SET_NO":"999","SEMIMAJOR_AXIS":"6917.879","APOAPSIS":"540.971","FILE":"3527046","TLE_LINE1":"1 51147U 22005AV  22213.76457035  .00000148  00000-0  27403-4 0  9997","BSTAR":"0.00002740300000","RCS_SIZE":"LARGE","MEAN_ANOMALY":"297.3334","COUNTRY_CODE":"US","CLASSIFICATION_TYPE":"U","DECAY_DATE":null,"MEAN_MOTION":"15.08840462","LAUNCH_DATE":"2022-01-19","REF_FRAME":"TEME","RA_OF_ASC_NODE":"96.5478","OBJECT_TYPE":"PAYLOAD","TIME_SYSTEM":"UTC","PERIOD":"95.438","EPHEMERIS_TYPE":"0","INCLINATION":"53.2174","MEAN_MOTION_DOT":"0.00000148","MEAN_ELEMENT_THEORY":"SGP4","CENTER_NAME":"EARTH","OBJECT_ID":"2022-005AV","TLE_LINE2":"2 51147  53.2174  96.5478 0001774  62.7838 297.3334 15.08840462 31052","ARG_OF_PERICENTER":"62.7838"},{"FILE":"3527139","TLE_LINE1":"1 51148U 22005AW  22213.68729257  .00001752  00000-0  12815-3 0  9999","RCS_SIZE":"LARGE","BSTAR":"0.00012815000000","APOAPSIS":"541.305","SEMIMAJOR_AXIS":"6917.875","ELEMENT_SET_NO":"999","MEAN_MOTION_DDOT":"0.0000000000000","GP_ID":"209390188","SITE":"AFETR","EPOCH":"2022-08-01T16:29:42.078048","OBJECT_NAME":"STARLINK-3359","NORAD_CAT_ID":"51148","ECCENTRICITY":"0.00022620","PERIAPSIS":"538.175","REV_AT_EPOCH":"2992","TLE_LINE2":"2 51148  53.2160  96.8859 0002262  64.2799 295.8426 15.08841714 29929","ARG_OF_PERICENTER":"64.2799","OBJECT_ID":"2022-005AW","CENTER_NAME":"EARTH","MEAN_ELEMENT_THEORY":"SGP4","INCLINATION":"53.2160","MEAN_MOTION_DOT":"0.00001752","EPHEMERIS_TYPE":"0","OBJECT_TYPE":"PAYLOAD","RA_OF_ASC_NODE":"96.8859","PERIOD":"95.437","TIME_SYSTEM":"UTC","LAUNCH_DATE":"2022-01-19","REF_FRAME":"TEME","DECAY_DATE":null,"MEAN_MOTION":"15.08841714","COUNTRY_CODE":"US","MEAN_ANOMALY":"295.8426","CLASSIFICATION_TYPE":"U"},{"REV_AT_EPOCH":"2996","NORAD_CAT_ID":"51149","ECCENTRICITY":"0.00022900","PERIAPSIS":"538.140","SITE":"AFETR","GP_ID":"209390439","EPOCH":"2022-08-01T22:45:56.022912","OBJECT_NAME":"STARLINK-3360","MEAN_MOTION_DDOT":"0.0000000000000","ELEMENT_SET_NO":"999","APOAPSIS":"541.309","SEMIMAJOR_AXIS":"6917.859","FILE":"3527139","TLE_LINE1":"1 51149U 22005AX  22213.94856508  .00002726  00000-0  18931-3 0  9996","RCS_SIZE":"LARGE","BSTAR":"0.00018931000000","COUNTRY_CODE":"US","MEAN_ANOMALY":"286.0695","CLASSIFICATION_TYPE":"U","REF_FRAME":"TEME","LAUNCH_DATE":"2022-01-19","DECAY_DATE":null,"MEAN_MOTION":"15.08846872","RA_OF_ASC_NODE":"95.7081","OBJECT_TYPE":"PAYLOAD","PERIOD":"95.437","TIME_SYSTEM":"UTC","EPHEMERIS_TYPE":"0","INCLINATION":"53.2170","MEAN_MOTION_DOT":"0.00002726","OBJECT_ID":"2022-005AX","CENTER_NAME":"EARTH","MEAN_ELEMENT_THEORY":"SGP4","TLE_LINE2":"2 51149  53.2170  95.7081 0002290  74.0549 286.0695 15.08846872 29963","ARG_OF_PERICENTER":"74.0549"},{"EPOCH":"2022-08-01T21:43:40.797120","OBJECT_NAME":"STARLINK-3357","GP_ID":"209365758","SITE":"AFETR","MEAN_MOTION_DDOT":"0.0000000000000","ELEMENT_SET_NO":"999","REV_AT_EPOCH":"3121","PERIAPSIS":"538.470","ECCENTRICITY":"0.00018410","NORAD_CAT_ID":"51150","BSTAR":"0.00003910700000","RCS_SIZE":"LARGE","FILE":"3527046","TLE_LINE1":"1 51150U 22005AY  22213.90533330  .00000334  00000-0  39107-4 0  9991","SEMIMAJOR_AXIS":"6917.879","APOAPSIS":"541.017","PERIOD":"95.438","TIME_SYSTEM":"UTC","OBJECT_TYPE":"PAYLOAD","RA_OF_ASC_NODE":"85.9082","EPHEMERIS_TYPE":"0","CLASSIFICATION_TYPE":"U","MEAN_ANOMALY":"298.0565","COUNTRY_CODE":"US","MEAN_MOTION":"15.08840617","DECAY_DATE":null,"LAUNCH_DATE":"2022-01-19","REF_FRAME":"TEME","ARG_OF_PERICENTER":"62.0613","TLE_LINE2":"2 51150  53.2192  85.9082 0001841  62.0613 298.0565 15.08840617 31212","MEAN_MOTION_DOT":"0.00000334","INCLINATION":"53.2192","MEAN_ELEMENT_THEORY":"SGP4","CENTER_NAME":"EARTH","OBJECT_ID":"2022-005AY"},{"SEMIMAJOR_AXIS":"6917.885","APOAPSIS":"541.128","BSTAR":"0.00006123600000","RCS_SIZE":"LARGE","TLE_LINE1":"1 51151U 22005AZ  22213.94121527  .00000686  00000-0  61236-4 0  9995","FILE":"3527139","PERIAPSIS":"538.372","ECCENTRICITY":"0.00019920","NORAD_CAT_ID":"51151","REV_AT_EPOCH":"2996","MEAN_MOTION_DDOT":"0.0000000000000","ELEMENT_SET_NO":"999","OBJECT_NAME":"STARLINK-3361","EPOCH":"2022-08-01T22:35:20.999328","SITE":"AFETR","GP_ID":"209391430","CENTER_NAME":"EARTH","MEAN_ELEMENT_THEORY":"SGP4","OBJECT_ID":"2022-005AZ","MEAN_MOTION_DOT":"0.00000686","INCLINATION":"53.2169","ARG_OF_PERICENTER":"63.7891","TLE_LINE2":"2 51151  53.2169  95.7352 0001992  63.7891 296.3305 15.08838517 29967","MEAN_MOTION":"15.08838517","DECAY_DATE":null,"LAUNCH_DATE":"2022-01-19","REF_FRAME":"TEME","CLASSIFICATION_TYPE":"U","COUNTRY_CODE":"US","MEAN_ANOMALY":"296.3305","EPHEMERIS_TYPE":"0","PERIOD":"95.438","TIME_SYSTEM":"UTC","RA_OF_ASC_NODE":"95.7352","OBJECT_TYPE":"PAYLOAD"},{"ECCENTRICITY":"0.00023390","NORAD_CAT_ID":"51152","PERIAPSIS":"538.125","REV_AT_EPOCH":"2996","MEAN_MOTION_DDOT":"0.0000000000000","ELEMENT_SET_NO":"999","GP_ID":"209390687","SITE":"AFETR","EPOCH":"2022-08-01T22:40:38.780256","OBJECT_NAME":"STARLINK-3364","SEMIMAJOR_AXIS":"6917.878","APOAPSIS":"541.362","FILE":"3527139","TLE_LINE1":"1 51152U 22005BA  22213.94489329  .00000049  00000-0  21189-4 0  9999","BSTAR":"0.00002118900000","RCS_SIZE":"LARGE","DECAY_DATE":null,"MEAN_MOTION":"15.08840625","LAUNCH_DATE":"2022-01-19","REF_FRAME":"TEME","COUNTRY_CODE":"US","MEAN_ANOMALY":"296.9057","CLASSIFICATION_TYPE":"U","EPHEMERIS_TYPE":"0","RA_OF_ASC_NODE":"95.7254","OBJECT_TYPE":"PAYLOAD","PERIOD":"95.438","TIME_SYSTEM":"UTC","MEAN_ELEMENT_THEORY":"SGP4","CENTER_NAME":"EARTH","OBJECT_ID":"2022-005BA","INCLINATION":"53.2174","MEAN_MOTION_DOT":"0.00000049","TLE_LINE2":"2 51152  53.2174  95.7254 0002339  63.2174 296.9057 15.08840625 29963","ARG_OF_PERICENTER":"63.2174"},{"EPHEMERIS_TYPE":"0","RA_OF_ASC_NODE":"65.9615","OBJECT_TYPE":"PAYLOAD","TIME_SYSTEM":"UTC","PERIOD":"95.438","REF_FRAME":"TEME","LAUNCH_DATE":"2022-02-03","MEAN_MOTION":"15.08831691","DECAY_DATE":null,"COUNTRY_CODE":"US","MEAN_ANOMALY":"291.7810","CLASSIFICATION_TYPE":"U","TLE_LINE2":"2 51460  53.2187  65.9615 0001636  68.3356 291.7810 15.08831691 28182","ARG_OF_PERICENTER":"68.3356","OBJECT_ID":"2022-010E","CENTER_NAME":"EARTH","MEAN_ELEMENT_THEORY":"SGP4","INCLINATION":"53.2187","MEAN_MOTION_DOT":"-0.00000083","MEAN_MOTION_DDOT":"0.0000000000000","ELEMENT_SET_NO":"999","GP_ID":"209390949","SITE":"AFETR","OBJECT_NAME":"STARLINK-3167","EPOCH":"2022-08-01T21:25:08.178528","NORAD_CAT_ID":"51460","ECCENTRICITY":"0.00016360","PERIAPSIS":"538.639","REV_AT_EPOCH":"2818","FILE":"3527139","TLE_LINE1":"1 51460U 22010E   22213.89245577 -.00000083  00000-0  12904-4 0  9990","RCS_SIZE":"LARGE","BSTAR":"0.00001290400000","APOAPSIS":"540.903","SEMIMAJOR_AXIS":"6917.906"},{"EPHEMERIS_TYPE":"0","RA_OF_ASC_NODE":"66.7780","OBJECT_TYPE":"PAYLOAD","PERIOD":"95.438","TIME_SYSTEM":"UTC","DECAY_DATE":null,"MEAN_MOTION":"15.08838284","REF_FRAME":"TEME","LAUNCH_DATE":"2022-02-03","MEAN_ANOMALY":"300.3929","COUNTRY_CODE":"US","CLASSIFICATION_TYPE":"U","TLE_LINE2":"2 51461  53.2187  66.7780 0001536  59.7215 300.3929 15.08838284 28152","ARG_OF_PERICENTER":"59.7215","CENTER_NAME":"EARTH","MEAN_ELEMENT_THEORY":"SGP4","OBJECT_ID":"2022-010F","INCLINATION":"53.2187","MEAN_MOTION_DOT":"0.00000418","ELEMENT_SET_NO":"999","MEAN_MOTION_DDOT":"0.0000000000000","SITE":"AFETR","GP_ID":"209391200","EPOCH":"2022-08-01T17:05:28.531392","OBJECT_NAME":"STARLINK-3181","ECCENTRICITY":"0.00015360","NORAD_CAT_ID":"51461","PERIAPSIS":"538.688","REV_AT_EPOCH":"2815","TLE_LINE1":"1 51461U 22010F   22213.71213578  .00000418  00000-0  44365-4 0  9995","FILE":"3527139","BSTAR":"0.00004436500000","RCS_SIZE":"LARGE","SEMIMAJOR_AXIS":"6917.886","APOAPSIS":"540.813"}];
